PISAT                   
1 41784U 16059B   17345.74984904  .00000099  00000-0  28565-4 0  9998
2 41784  98.1459  45.3484 0031171 324.9363  34.9786 14.63286255 64541
